[{"OBJECT_NAME":"STARLINK-2096","OBJECT_ID":"2021-005AD","EPOCH":"2026-03-09T22:00:01.999584","MEAN_MOTION":15.12290594,"ECCENTRICITY":7.226e-5,"INCLINATION":53.0769,"RA_OF_ASC_NODE":60.5199,"ARG_OF_PERICENTER":65.0752,"MEAN_ANOMALY":315.1685,"EPHEMERIS_TYPE":0,"CLASSIFICATION_TYPE":"U","NORAD_CAT_ID":47376,"ELEMENT_SET_NO":999,"REV_AT_EPOCH":572,"BSTAR":0.006329662,"MEAN_MOTION_DOT":0.0011228,"MEAN_MOTION_DDOT":0},{"OBJECT_NAME":"OBJECT D","OBJECT_ID":"2026-027D","EPOCH":"2026-03-09T23:02:32.268480","MEAN_MOTION":15.18179588,"ECCENTRICITY":0.00102807,"INCLINATION":97.4905,"RA_OF_ASC_NODE":197.9873,"ARG_OF_PERICENTER":203.4991,"MEAN_ANOMALY":156.5775,"EPHEMERIS_TYPE":0,"CLASSIFICATION_TYPE":"U","NORAD_CAT_ID":67749,"ELEMENT_SET_NO":999,"REV_AT_EPOCH":385,"BSTAR":0.00056517767,"MEAN_MOTION_DOT":0.00011507,"MEAN_MOTION_DDOT":0}]
